STARLINK-5510           
1 55647U 23021V   26068.74813769  .00000113  00000+0  17236-4 0  9999
2 55647  70.0015 184.1673 0003264 270.0124  90.0661 14.98333238168802
LEMUR-2-THEFALCONER     
1 63264U 25052BG  26068.95148778  .00006306  00000+0  55972-3 0  9991
2 63264  97.6968 322.9473 0002114  10.9074 349.2193 14.96514677 53848
